[
    {
        "Altitude(m)": 624792.7391743733,
        "Argument of Periapsis(deg)": 0.0,
        "Eccentricity": 0.0,
        "Inclination(deg)": 60.0,
        "Latitude(deg)": -59.146987837133885,
        "Longitude(deg)": 79.02645122223542,
        "Mean Anomaly(deg)": -98.18179999999998,
        "RAAN(deg)": 285.0,
        "Satellite Name": "Test1 1270",
        "Satellite Number": 1270,
        "Semi-Major Axis(m)": 6980739.136638005,
        "Time(s)": 0
    },
    {
        "Altitude(m)": 624842.1311143838,
        "Argument of Periapsis(deg)": 0.00010418945913296404,
        "Eccentricity": 0.0,
        "Inclination(deg)": 60.0,
        "Latitude(deg)": -59.28907087644443,
        "Longitude(deg)": 80.15595225504421,
        "Mean Anomaly(deg)": -97.56169385453813,
        "RAAN(deg)": 284.9995799508602,
        "Satellite Name": "Test1 1270",
        "Satellite Number": 1270,
        "Semi-Major Axis(m)": 6980739.136638005,
        "Time(s)": 10
    }
]